INTELSAT 902 (IS-902)   
1 26900U 01039A   26168.53041906 -.00000291  00000+0  00000+0 0  9992
2 26900   6.1182  71.7793 0004328  11.2555 323.5996  1.00271937 90698
INTELSAT 904 (IS-904)   
1 27380U 02007A   26168.46286184 -.00000234  00000+0  00000+0 0  9999
2 27380   6.9214  69.1812 0006495   5.3617 326.3067  1.00270446 51767
DIRECTV 5 (TEMPO 1)     
1 27426U 02023A   26168.87503751 -.00000065  00000+0  00000+0 0  9997
2 27426   4.8803  75.3025 0003354  25.8416   9.8887  1.00271773 88137
INTELSAT 905 (IS-905)   
1 27438U 02027A   26168.79813424  .00000085  00000+0  00000+0 0  9997
2 27438   6.7559  69.7936 0003827  21.5992 324.7612  1.00271612 51366
GALAXY 3C (G-3C)        
1 27445U 02030A   26168.59285479 -.00000159  00000+0  00000+0 0  9993
2 27445   3.7335  77.9723 0001580  30.9364 275.5108  1.00270957 46491
INTELSAT 906 (IS-906)   
1 27513U 02041A   26168.81066779  .00000004  00000+0  00000+0 0  9994
2 27513   5.8041  72.9148 0004582   7.8525 181.2835  1.00273090 87033
GALAXY 13 (HORIZONS-1)  
1 27954U 03044A   26168.72455022  .00000127  00000+0  00000+0 0  9996
2 27954   1.4205  83.8589 0002243 354.1572 298.7829  1.00271264 46570
INTELSAT 10-02          
1 28358U 04022A   26168.89661565 -.00000016  00000+0  00000+0 0  9999
2 28358   0.0157 308.6447 0000138 217.6980  61.5742  1.00273065 80566
DIRECTV 8               
1 28659U 05019A   26168.87313083  .00000000  00000+0  00000+0 0  9999
2 28659   0.0194   6.2220 0002929  88.0635   7.1182  1.00270998 77087
GALAXY 28 (G-28)        
1 28702U 05022A   26168.89150230 -.00000207  00000+0  00000+0 0  9997
2 28702   3.3002  78.9264 0002866   7.0085 114.0687  1.00271229 51981
GALAXY 16 (G-16)        
1 29236U 06023A   26168.87720418 -.00000132  00000+0  00000+0 0  9998
2 29236   0.0091  73.9388 0002478   9.2463  39.7289  1.00271487 72981
DIRECTV 9S              
1 29494U 06043A   26168.87651084 -.00000120  00000+0  00000+0 0  9995
2 29494   2.4233  80.8945 0004922  13.0193  26.5570  1.00270877 51397
GALAXY 17 (G-17)        
1 31307U 07016B   26168.87997752 -.00000213  00000+0  00000+0 0  9990
2 31307   2.9746  79.8921 0004610  17.9208  40.0925  1.00271766 69812
INTELSAT 11 (IS-11)     
1 32253U 07044B   26168.77863414 -.00000235  00000+0  00000+0 0  9992
2 32253   3.5678  78.6617 0002376  89.6249 141.3192  0.99050558 68452
HORIZONS-2              
1 32388U 07063B   26168.88223087 -.00000260  00000+0  00000+0 0  9998
2 32388   2.6047  80.6173 0003780   2.9310  66.3634  1.00268277 67827
DIRECTV 11              
1 32729U 08013A   26168.59198813 -.00000130  00000+0  00000+0 0  9995
2 32729   0.0106 249.6020 0000252 114.3635  15.8127  1.00268228 45593
GALAXY 18 (G-18)        
1 32951U 08024A   26168.65862089  .00000020  00000+0  00000+0 0  9991
2 32951   0.0123  45.8146 0002742  41.3276 292.8739  1.00272522 45857
INTELSAT 25 (IS-25)     
1 33153U 08034A   26168.92028175 -.00000205  00000+0  00000+0 0  9993
2 33153   2.7126  80.3632 0003377  60.5450 214.9498  0.99034453 65697
GALAXY 19 (G-19)        
1 33376U 08045A   26168.87763752 -.00000145  00000+0  00000+0 0  9996
2 33376   0.0344 264.0057 0002473 186.5968  34.4760  1.00271180 64912
FM-5                    
1 35493U 09034A   26168.87971752 -.00000205  00000+0  00000+0 0  9995
2 35493   0.0177 298.2402 0000860   8.5551 189.8648  1.00269191 46650
INTELSAT 14 (IS-14)     
1 36097U 09064A   26168.81659432 -.00000279  00000+0  00000+0 0  9992
2 36097   0.0147 305.8787 0002259 142.3365  66.8278  1.00270172 60619
INTELSAT 15 (IS-15)     
1 36106U 09067A   26168.91369505 -.00000190  00000+0  00000+0 0  9998
2 36106   0.0144 330.2034 0002084 120.0474 229.9779  1.00270234 41238
DIRECTV 12              
1 36131U 09075A   26168.66260758 -.00000108  00000+0  00000+0 0  9996
2 36131   0.0147 116.8023 0000258 315.2518 329.6722  1.00267604 46556
INTELSAT 16 (IS-16)     
1 36397U 10006A   26168.88171087 -.00000250  00000+0  00000+0 0  9994
2 36397   0.0124 320.3270 0001881 140.8305  46.1757  1.00272475 59667
XM-5                    
1 37185U 10053A   26168.87391083 -.00000028  00000+0  00000+0 0  9994
2 37185   0.0616 273.1762 0002892 287.5831 264.7647  1.00270093 57495
INTELSAT 17 (IS-17)     
1 37238U 10065B   26168.90988170 -.00000007  00000+0  00000+0 0  9996
2 37238   0.0043 319.1001 0002609 139.1416 201.4682  1.00271782 53255
INTELSAT 28 (IS-28)     
1 37392U 11016A   26168.89054896 -.00000231  00000+0  00000+0 0  9990
2 37392   1.8089  82.5978 0003640   5.1039 107.3131  1.00270813 53299
INTELSAT 18 (IS-18)     
1 37834U 11056A   26168.86117078  .00000047  00000+0  00000+0 0  9998
2 37834   0.0301 278.4061 0001654 167.5825 310.1343  1.00270629 53818
INTELSAT 22 (IS-22)     
1 38098U 12011A   26168.91109503 -.00000064  00000+0  00000+0 0  9993
2 38098   0.0129  40.8137 0001541  51.0351 214.4037  1.00272328  7194
INTELSAT 19 (IS-19)     
1 38356U 12030A   26168.85839743 -.00000062  00000+0  00000+0 0  9998
2 38356   0.0179 356.5310 0002889  98.9097 285.6805  1.00271264 50457
INTELSAT 20 (IS-20)     
1 38740U 12043A   26168.91040170 -.00000029  00000+0  00000+0 0  9997
2 38740   0.0020  42.0077 0001307 148.2663 112.1378  1.00266480 50754
